HST                     
1 20580U 90037B   25010.35547635  .00008552  00000+0  35174-3 0  9992
2 20580  28.4698  32.5713 0002772 146.7068 213.3700 15.22334898708584
POLAR                   
1 23802U 96013A   25001.60042515  .00000290  00000+0  00000+0 0  9994
2 23802  79.2820 232.7216 5995386 227.0148  64.0268  1.29846686137936
SWAS                    
1 25560U 98071A   25010.60102190  .00007548  00000+0  55218-3 0  9997
2 25560  69.8975 129.8724 0008594 318.4188  41.6319 15.03947955418539
CXO                     
1 25867U 99040B   25010.77007610  .00000454  00000+0  00000+0 0  9997
2 25867  45.9725 138.0735 8652246 306.0969   0.2177  0.37805379 15347
XMM-NEWTON              
1 25989U 99066A   25007.83334970  .00000092  00000+0  00000+0 0  9993
2 25989  66.9662 290.0160 4963486  73.8966   0.1277  0.50132804 20379
TERRA                   
1 25994U 99068A   25010.54303709  .00000857  00000+0  18641-3 0  9992
2 25994  98.0225  73.7150 0003541  81.4431  49.1187 14.60386823333307
CLUSTER II-FM7 (SAMBA)  
1 26410U 00041A   25010.81144275  .00001887  00000+0  00000+0 0  9990
2 26410 141.9547   4.6210 8007154 219.8204 359.8408  0.44832716 17965
CLUSTER II-FM5 (RUMBA)  
1 26463U 00045A   25011.64731641  .00019110  00000+0  00000+0 0  9991
2 26463 153.6796  47.3137 8927956 264.1813 359.4209  0.42908272 30285
CLUSTER II-FM8 (TANGO)  
1 26464U 00045B   25011.08128389  .00001903  00000+0  00000+0 0  9990
2 26464 142.1891   4.9212 8012467 219.9940 359.3595  0.44415510 65644
ODIN                    
1 26702U 01007A   25010.50874439  .00019497  00000+0  62396-3 0  9991
2 26702  97.4634  32.0247 0004568 266.5003  93.5716 15.32437646308547
TIMED                   
1 26998U 01055B   25010.47948022  .00002276  00000+0  22222-3 0  9998
2 26998  74.0682 205.8799 0001832 217.9460 142.1594 14.93069727252740
INTEGRAL                
1 27540U 02048A   25010.38271990 -.00000471  00000+0  00000+0 0  9990
2 27540  90.6967  11.2725 8609897 275.9983 353.7766  0.37575023 24662
CORIOLIS                
1 27640U 03001A   25010.51762546  .00000260  00000+0  14360-3 0  9991
2 27640  98.7140  20.4534 0013049 279.0039  80.9660 14.19688036140050
SORCE                   
1 27651U 03004A   25010.34113142  .00005365  00000+0  45017-3 0  9993
2 27651  39.9934 354.2742 0021745 260.3612  99.4724 14.98525700193296
MOST                    
1 27843U 03031D   25009.99263833  .00000218  00000+0  12032-3 0  9991
2 27843  98.7072  20.0209 0009292 328.5739  31.4882 14.21129679116399
SCISAT 1                
1 27858U 03036A   25010.29422257  .00001648  00000+0  22130-3 0  9992
2 27858  73.9308 129.4072 0008593 308.0739  51.9661 14.80207959154049
SWIFT                   
1 28485U 04047A   25010.58528412  .00021163  00000+0  69424-3 0  9995
2 28485  20.5543 125.6858 0007872  98.2204 261.9127 15.29508551105850
CALIPSO                 
1 29108U 06016B   25010.56309407  .00002536  00000+0  45734-3 0  9996
2 29108  98.4379   4.0531 0001687  93.6146 266.5250 14.67425421996349
HINODE (SOLAR-B)        
1 29479U 06041A   25010.50008165  .00001259  00000+0  23051-3 0  9995
2 29479  98.0809  28.9775 0018543 141.9211 218.3307 14.67428252978172
SHIJIAN-6 02A (SJ-6 02A)
1 29505U 06046A   25010.55028654  .00008566  00000+0  55450-3 0  9996
2 29505  97.7028  43.6540 0004935 120.3248 239.8468 15.08398375993234
SHIJIAN-6 02B (SJ-6 02B)
1 29506U 06046B   25010.50619602  .00001967  00000+0  16754-3 0  9993
2 29506  97.7247  39.4716 0002396  27.2927 332.8422 14.98919893992363
FGRST (GLAST)           
1 33053U 08029A   25010.28504297  .00004070  00000+0  17086-3 0  9993
2 33053  25.5802 224.1220 0009298 297.1603  62.7986 15.19631413916083
SDO                     
1 36395U 10005A   25010.22618986 -.00000098  00000+0  00000+0 0  9998
2 36395  33.5545  94.3671 0001760 187.9096 167.0249  1.00268859 54813
CRYOSAT 2               
1 36508U 10013A   25010.59874931  .00000408  00000+0  10068-3 0  9990
2 36508  92.0177 151.1587 0001276  54.5742 305.5584 14.51898025782258
X-SAT                   
1 37389U 11015C   25010.57223822  .00000290  00000+0  14141-3 0  9991
2 37389  98.3021   9.2502 0015283  78.9520 281.3379 14.24927316713242
GCOM-W1 (SHIZUKU)       
1 38337U 12025A   25010.61788972  .00001236  00000+0  28434-3 0  9995
2 38337  98.2258 313.7188 0001018  67.4710 105.4891 14.57125344672937
NUSTAR                  
1 38358U 12031A   25010.58334491  .00008302  00000+0  57042-3 0  9992
2 38358   6.0287 332.5138 0010741 288.2388 215.5110 15.00991270  1302
NEOSSAT                 
1 39089U 13009D   25010.50503813  .00000375  00000+0  14514-3 0  9997
2 39089  98.4012 198.4811 0011263  10.3035 349.8379 14.35465677621743
BRITE-AUSTRIA           
1 39091U 13009F   25010.54956636  .00000440  00000+0  16548-3 0  9991
2 39091  98.3821 198.4781 0010415   7.1142 353.0191 14.36145980622024
IRIS                    
1 39197U 13033A   25010.47031195  .00003012  00000+0  36909-3 0  9992
2 39197  97.9543 206.2033 0024409 224.9227 135.0012 14.83708505622802
HISAKI (SPRINT-A)       
1 39253U 13049A   25010.42952580  .00000156  00000+0  12562-3 0  9992
2 39253  29.7214 357.5796 0136997  99.0321 262.5781 13.55462448560442
CASSIOPE                
1 39265U 13055A   25010.54792676  .00048546  00000+0  86600-3 0  9992
2 39265  80.9481 322.2592 0433804 335.8286  22.3089 14.86624194589011
STSAT-3                 
1 39422U 13066G   25010.52760516  .00004986  00000+0  42589-3 0  9993
2 39422  97.5438 348.2616 0020399  27.6829 332.5476 14.97946987605820
SWARM B                 
1 39451U 13067A   25010.63151291  .00006357  00000+0  26549-3 0  9994
2 39451  87.7504 140.4480 0002240  90.5153 269.6350 15.23463514603540
SWARM A                 
1 39452U 13067B   25010.56157763  .00010451  00000+0  27587-3 0  9990
2 39452  87.3390 248.0990 0003034  77.2951 282.8642 15.38316215625570
SWARM C                 
1 39453U 13067C   25010.56149717  .00010448  00000+0  27581-3 0  9991
2 39453  87.3389 246.6885 0003013  77.2538 282.9052 15.38314335625537
BRITE-CA1 (TORONTO)     
1 40020U 14033L   25010.54558083  .00002500  00000+0  39582-3 0  9999
2 40020  97.9020 146.9470 0081768 148.9001 211.7083 14.70888055565339
OCO 2                   
1 40059U 14035A   25010.57980028  .00001068  00000+0  24699-3 0  9995
2 40059  98.2256 314.4282 0001331  70.6653 289.4689 14.57139899559945
BRITE-PL2 (HEWELIUSZ)   
1 40119U 14049B   25010.52649040  .00002959  00000+0  30242-3 0  9999
2 40119  97.8859 115.6663 0015926  44.3782 315.8709 14.91260339563456
RESURS-P 2              
1 40360U 14087A   25010.53252080  .00235685  24226-4  52853-3 0  9991
2 40360  97.1269 108.2332 0003121 234.7021 125.3965 15.97751740562116
MMS 1                   
1 40482U 15011A   25010.25001157 -.00001660  00000+0  00000+0 0  9997
2 40482  59.2217 359.9244 8897640 155.5988  99.2123  0.28517634  1334
MMS 2                   
1 40483U 15011B   25010.25001157 -.00001660  00000+0  00000+0 0  9998
2 40483  59.2205 359.9255 8897509 155.5983  97.6044  0.28516293  1337
MMS 3                   
1 40484U 15011C   25010.25001157 -.00001660  00000+0  00000+0 0  9999
2 40484  59.2223 359.9239 8897466 155.5989  97.8930  0.28516826  1336
MMS 4                   
1 40485U 15011D   25010.33334491 -.00001678  00000+0  00000+0 0  9998
2 40485  59.2195 359.9256 8896648 155.5987  96.5671  0.28515219  1370
ASTROSAT                
1 40930U 15052A   25010.16843399  .00002703  00000+0  25924-3 0  9996
2 40930   5.9978 315.4747 0007603 138.3517 221.7190 14.80696210502120
DAMPE                   
1 41173U 15078A   25010.54845625  .00002263  00000+0  83877-4 0  9993
2 41173  97.4418   9.5883 0013967 124.4115 235.8447 15.28607479504649
PISAT                   
1 41784U 16059B   25010.49903923  .00001765  00000+0  31927-3 0  9995
2 41784  97.8233  29.0873 0031347  74.7016 285.7651 14.67238521443048
HXMT (HUIYAN)           
1 42758U 17034A   25010.59251484  .00008192  00000+0  37527-3 0  9993
2 42758  43.0112 201.9914 0010900 355.8167   4.2590 15.20741989418346
FLYING LAPTOP           
1 42831U 17042G   25010.57549955  .00004160  00000+0  36149-3 0  9995
2 42831  97.3908 185.9240 0013865  96.5102 263.7700 14.97427429408142
ZHANGHENG 1 (CSES)      
1 43194U 18015C   25010.59315829  .00016382  00000+0  75206-3 0  9998
2 43194  97.6271 162.6751 0007132 204.4698 155.6199 15.20466908385215
SALSAT                  
1 46495U 20068K   25010.48943358  .00009445  00000+0  45451-3 0  9999
2 46495  97.8427 342.1650 0011387 330.7464  29.3130 15.18957018235716
IXPE                    
1 49954U 21121A   25010.58334491  .00009899  00000+0  65656-3 0  9998
2 49954   0.2310 289.6267 0007797 130.9130 324.4591 15.02758188  5914
